{
  "type": "FeatureCollection",
  "features": [
    {
      "type": "Feature",
      "properties": {
        "norad_id": 30838,
        "name": "FENGYUN 1C DEB",
        "group": "fengyun-1c-debris",
        "lat": -59.87888848364368,
        "lon": 78.12606498055585,
        "alt_km": 752.6901321726318,
        "timestamp": "2025-12-25T07:41:10.002123+00:00",
        "meta_object_name": "FENGYUN 1C DEB",
        "meta_object_id": "1999-025AVY",
        "meta_epoch": "2025-12-24T10:40:38.714592",
        "meta_mean_motion": 14.47929754,
        "meta_eccentricity": 0.00351435,
        "meta_inclination": 99.0426,
        "meta_ra_of_asc_node": 273.122,
        "meta_arg_of_pericenter": 121.5708,
        "meta_mean_anomaly": 238.8922,
        "meta_ephemeris_type": 0,
        "meta_classification_type": "U",
        "meta_norad_cat_id": 30838,
        "meta_element_set_no": 999,
        "meta_rev_at_epoch": 97483,
        "meta_bstar": 0.0025841117,
        "meta_mean_motion_dot": 9.619e-05,
        "meta_mean_motion_ddot": 0,
        "tle_line1": "1 30838U 99025AVY 25358.44489253  .00009619  00000+0  25841-2 0  9995",
        "tle_line2": "2 30838  99.0426 273.1220 0035143 121.5708 238.8922 14.47929754974838"
      },
      "geometry": {
        "type": "Point",
        "coordinates": [
          78.12606498055585,
          -59.87888848364368
        ]
      }
    },
    {
      "type": "Feature",
      "properties": {
        "norad_id": 30840,
        "name": "FENGYUN 1C DEB",
        "group": "fengyun-1c-debris",
        "lat": -63.7409161453226,
        "lon": 173.68195632068108,
        "alt_km": 682.9839387080265,
        "timestamp": "2025-12-25T07:41:10.002134+00:00",
        "meta_object_name": "FENGYUN 1C DEB",
        "meta_object_id": "1999-025AWA",
        "meta_epoch": "2025-12-24T19:02:54.179232",
        "meta_mean_motion": 14.61225053,
        "meta_eccentricity": 0.02165043,
        "meta_inclination": 98.0227,
        "meta_ra_of_asc_node": 9.7826,
        "meta_arg_of_pericenter": 332.7181,
        "meta_mean_anomaly": 26.2778,
        "meta_ephemeris_type": 0,
        "meta_classification_type": "U",
        "meta_norad_cat_id": 30840,
        "meta_element_set_no": 999,
        "meta_rev_at_epoch": 73307,
        "meta_bstar": 0.00079778094,
        "meta_mean_motion_dot": 5.436e-05,
        "meta_mean_motion_ddot": 0,
        "tle_line1": "1 30840U 99025AWA 25358.79368263  .00005436  00000+0  79778-3 0  9995",
        "tle_line2": "2 30840  98.0227   9.7826 0216504 332.7181  26.2778 14.61225053733071"
      },
      "geometry": {
        "type": "Point",
        "coordinates": [
          173.68195632068108,
          -63.7409161453226
        ]
      }
    },
    {
      "type": "Feature",
      "properties": {
        "norad_id": 30843,
        "name": "FENGYUN 1C DEB",
        "group": "fengyun-1c-debris",
        "lat": 40.97222830502879,
        "lon": 63.85003373760114,
        "alt_km": 632.7928647374756,
        "timestamp": "2025-12-25T07:41:10.002144+00:00",
        "meta_object_name": "FENGYUN 1C DEB",
        "meta_object_id": "1999-025AWD",
        "meta_epoch": "2025-12-24T03:23:32.017920",
        "meta_mean_motion": 14.52491521,
        "meta_eccentricity": 0.01488463,
        "meta_inclination": 98.841,
        "meta_ra_of_asc_node": 70.3765,
        "meta_arg_of_pericenter": 85.3289,
        "meta_mean_anomaly": 276.4887,
        "meta_ephemeris_type": 0,
        "meta_classification_type": "U",
        "meta_norad_cat_id": 30843,
        "meta_element_set_no": 999,
        "meta_rev_at_epoch": 99490,
        "meta_bstar": 0.00012943843,
        "meta_mean_motion_dot": 5.54e-06,
        "meta_mean_motion_ddot": 0,
        "tle_line1": "1 30843U 99025AWD 25358.14134280  .00000554  00000+0  12944-3 0  9995",
        "tle_line2": "2 30843  98.8410  70.3765 0148846  85.3289 276.4887 14.52491521994901"
      },
      "geometry": {
        "type": "Point",
        "coordinates": [
          63.85003373760114,
          40.97222830502879
        ]
      }
    },
    {
      "type": "Feature",
      "properties": {
        "norad_id": 30845,
        "name": "FENGYUN 1C DEB",
        "group": "fengyun-1c-debris",
        "lat": 32.89651869574826,
        "lon": -176.1145703618232,
        "alt_km": 969.4255622071169,
        "timestamp": "2025-12-25T07:41:10.002154+00:00",
        "meta_object_name": "FENGYUN 1C DEB",
        "meta_object_id": "1999-025AWF",
        "meta_epoch": "2025-12-21T18:21:33.686208",
        "meta_mean_motion": 13.76864531,
        "meta_eccentricity": 0.01921106,
        "meta_inclination": 98.379,
        "meta_ra_of_asc_node": 355.2796,
        "meta_arg_of_pericenter": 245.9079,
        "meta_mean_anomaly": 290.0104,
        "meta_ephemeris_type": 0,
        "meta_classification_type": "U",
        "meta_norad_cat_id": 30845,
        "meta_element_set_no": 999,
        "meta_rev_at_epoch": 94367,
        "meta_bstar": 0.00027550575,
        "meta_mean_motion_dot": 2.73e-06,
        "meta_mean_motion_ddot": 0,
        "tle_line1": "1 30845U 99025AWF 25355.76497322  .00000273  00000+0  27551-3 0  9999",
        "tle_line2": "2 30845  98.3790 355.2796 0192110 245.9079 290.0104 13.76864531943674"
      },
      "geometry": {
        "type": "Point",
        "coordinates": [
          -176.1145703618232,
          32.89651869574826
        ]
      }
    },
    {
      "type": "Feature",
      "properties": {
        "norad_id": 30846,
        "name": "FENGYUN 1C DEB",
        "group": "fengyun-1c-debris",
        "lat": 53.45761302475752,
        "lon": 160.8664003698871,
        "alt_km": 764.2621938860129,
        "timestamp": "2025-12-25T07:41:10.002165+00:00",
        "meta_object_name": "FENGYUN 1C DEB",
        "meta_object_id": "1999-025AWG",
        "meta_epoch": "2025-12-23T06:18:07.356096",
        "meta_mean_motion": 14.41591186,
        "meta_eccentricity": 0.00539356,
        "meta_inclination": 99.3211,
        "meta_ra_of_asc_node": 171.4269,
        "meta_arg_of_pericenter": 305.526,
        "meta_mean_anomaly": 235.7251,
        "meta_ephemeris_type": 0,
        "meta_classification_type": "U",
        "meta_norad_cat_id": 30846,
        "meta_element_set_no": 999,
        "meta_rev_at_epoch": 98081,
        "meta_bstar": 0.0007453984,
        "meta_mean_motion_dot": 2.415e-05,
        "meta_mean_motion_ddot": 0,
        "tle_line1": "1 30846U 99025AWG 25357.26258514  .00002415  00000+0  74540-3 0  9995",
        "tle_line2": "2 30846  99.3211 171.4269 0053935 305.5260 235.7251 14.41591186980815"
      },
      "geometry": {
        "type": "Point",
        "coordinates": [
          160.8664003698871,
          53.45761302475752
        ]
      }
    },
    {
      "type": "Feature",
      "properties": {
        "norad_id": 30847,
        "name": "FENGYUN 1C DEB",
        "group": "fengyun-1c-debris",
        "lat": 78.80519366208095,
        "lon": 30.198345029189305,
        "alt_km": 873.620844629625,
        "timestamp": "2025-12-25T07:41:10.002175+00:00",
        "meta_object_name": "FENGYUN 1C DEB",
        "meta_object_id": "1999-025AWH",
        "meta_epoch": "2025-12-24T09:20:18.218400",
        "meta_mean_motion": 14.17103703,
        "meta_eccentricity": 0.00657959,
        "meta_inclination": 98.7321,
        "meta_ra_of_asc_node": 158.3361,
        "meta_arg_of_pericenter": 294.6027,
        "meta_mean_anomaly": 94.5153,
        "meta_ephemeris_type": 0,
        "meta_classification_type": "U",
        "meta_norad_cat_id": 30847,
        "meta_element_set_no": 999,
        "meta_rev_at_epoch": 96220,
        "meta_bstar": 0.0019856738,
        "meta_mean_motion_dot": 4.041e-05,
        "meta_mean_motion_ddot": 0,
        "tle_line1": "1 30847U 99025AWH 25358.38909975  .00004041  00000+0  19857-2 0  9990",
        "tle_line2": "2 30847  98.7321 158.3361 0065795 294.6027  94.5153 14.17103703962206"
      },
      "geometry": {
        "type": "Point",
        "coordinates": [
          30.198345029189305,
          78.80519366208095
        ]
      }
    },
    {
      "type": "Feature",
      "properties": {
        "norad_id": 30848,
        "name": "FENGYUN 1C DEB",
        "group": "fengyun-1c-debris",
        "lat": -80.45730663439942,
        "lon": -56.87462252017251,
        "alt_km": 757.3830164367937,
        "timestamp": "2025-12-25T07:41:10.002186+00:00",
        "meta_object_name": "FENGYUN 1C DEB",
        "meta_object_id": "1999-025AWJ",
        "meta_epoch": "2025-12-24T12:01:43.212576",
        "meta_mean_motion": 14.34555484,
        "meta_eccentricity": 0.00435565,
        "meta_inclination": 99.0594,
        "meta_ra_of_asc_node": 193.906,
        "meta_arg_of_pericenter": 301.431,
        "meta_mean_anomaly": 58.2618,
        "meta_ephemeris_type": 0,
        "meta_classification_type": "U",
        "meta_norad_cat_id": 30848,
        "meta_element_set_no": 999,
        "meta_rev_at_epoch": 97475,
        "meta_bstar": 0.0011922202,
        "meta_mean_motion_dot": 3.354e-05,
        "meta_mean_motion_ddot": 0,
        "tle_line1": "1 30848U 99025AWJ 25358.50119459  .00003354  00000+0  11922-2 0  9996",
        "tle_line2": "2 30848  99.0594 193.9060 0043556 301.4310  58.2618 14.34555484974759"
      },
      "geometry": {
        "type": "Point",
        "coordinates": [
          -56.87462252017251,
          -80.45730663439942
        ]
      }
    }
  ]
}